{"type": "FeatureCollection", "features": [ {"type": "Feature", "properties": {"norad_id": 67010, "name": "STARLINK-36189", "group": "last-30-days", "lat": -67.26696962580958, "lon": -131.74587492001984, "alt_km": 337.85868180370926, "timestamp": "2025-12-24T20:42:19.748275+00:00", "meta": {"OBJECT_NAME": "STARLINK-36189", "OBJECT_ID": "2025-293H", "EPOCH": "2025-12-24T06:00:02.000160", "MEAN_MOTION": 15.81084438, "ECCENTRICITY": 0.00037287, "INCLINATION": 69.9928, "RA_OF_ASC_NODE": 290.4224, "ARG_OF_PERICENTER": 270.9537, "MEAN_ANOMALY": 126.0522, "EPHEMERIS_TYPE": 0, "CLASSIFICATION_TYPE": "U", "NORAD_CAT_ID": 67010, "ELEMENT_SET_NO": 999, "REV_AT_EPOCH": 202, "BSTAR": -0.0093307777, "MEAN_MOTION_DOT": -0.01598548, "MEAN_MOTION_DDOT": 0}, "tle": {"line1": "1 67010U 25293H   25358.25002315 -.01598548  00000+0 -93308-2 0  9992", "line2": "2 67010  69.9928 290.4224 0003728 270.9537 126.0522 15.81084438  2029"}}, "geometry": {"type": "Point", "coordinates": [-131.74587492001984, -67.26696962580958]}}, {"type": "Feature", "properties": {"norad_id": 67011, "name": "STARLINK-36167", "group": "last-30-days", "lat": -68.34192108669828, "lon": -137.90332048101527, "alt_km": 337.79970087776746, "timestamp": "2025-12-24T20:42:19.748304+00:00", "meta": {"OBJECT_NAME": "STARLINK-36167", "OBJECT_ID": "2025-293J", "EPOCH": "2025-12-24T06:00:02.000160", "MEAN_MOTION": 15.81092185, "ECCENTRICITY": 0.000365, "INCLINATION": 69.9925, "RA_OF_ASC_NODE": 290.4246, "ARG_OF_PERICENTER": 278.3878, "MEAN_ANOMALY": 116.0166, "EPHEMERIS_TYPE": 0, "CLASSIFICATION_TYPE": "U", "NORAD_CAT_ID": 67011, "ELEMENT_SET_NO": 999, "REV_AT_EPOCH": 196, "BSTAR": -0.0092293567, "MEAN_MOTION_DOT": -0.01583765, "MEAN_MOTION_DDOT": 0}, "tle": {"line1": "1 67011U 25293J   25358.25002315 -.01583765  00000+0 -92294-2 0  9991", "line2": "2 67011  69.9925 290.4246 0003650 278.3878 116.0166 15.81092185  1968"}}, "geometry": {"type": "Point", "coordinates": [-137.90332048101527, -68.34192108669828]}}, {"type": "Feature", "properties": {"norad_id": 67012, "name": "STARLINK-36175", "group": "last-30-days", "lat": -66.1787960444157, "lon": -126.95237615921813, "alt_km": 337.8333491123876, "timestamp": "2025-12-24T20:42:19.748315+00:00", "meta": {"OBJECT_NAME": "STARLINK-36175", "OBJECT_ID": "2025-293K", "EPOCH": "2025-12-24T06:00:02.000160", "MEAN_MOTION": 15.81058318, "ECCENTRICITY": 0.00037211, "INCLINATION": 69.9925, "RA_OF_ASC_NODE": 290.4192, "ARG_OF_PERICENTER": 278.6014, "MEAN_ANOMALY": 120.6334, "EPHEMERIS_TYPE": 0, "CLASSIFICATION_TYPE": "U", "NORAD_CAT_ID": 67012, "ELEMENT_SET_NO": 999, "REV_AT_EPOCH": 196, "BSTAR": -0.0092497159, "MEAN_MOTION_DOT": -0.01584707, "MEAN_MOTION_DDOT": 0}, "tle": {"line1": "1 67012U 25293K   25358.25002315 -.01584707  00000+0 -92497-2 0  9994", "line2": "2 67012  69.9925 290.4192 0003721 278.6014 120.6334 15.81058318  1961"}}, "geometry": {"type": "Point", "coordinates": [-126.95237615921813, -66.1787960444157]}}, {"type": "Feature", "properties": {"norad_id": 67013, "name": "STARLINK-35856", "group": "last-30-days", "lat": -64.74407940542561, "lon": -121.90317644524093, "alt_km": 338.0313486959267, "timestamp": "2025-12-24T20:42:19.748332+00:00", "meta": {"OBJECT_NAME": "STARLINK-35856", "OBJECT_ID": "2025-293L", "EPOCH": "2025-12-24T06:00:02.000160", "MEAN_MOTION": 15.81038533, "ECCENTRICITY": 0.00035921, "INCLINATION": 69.9923, "RA_OF_ASC_NODE": 290.4156, "ARG_OF_PERICENTER": 270.8997, "MEAN_ANOMALY": 130.9158, "EPHEMERIS_TYPE": 0, "CLASSIFICATION_TYPE": "U", "NORAD_CAT_ID": 67013, "ELEMENT_SET_NO": 999, "REV_AT_EPOCH": 196, "BSTAR": -0.0092494354, "MEAN_MOTION_DOT": -0.01583257, "MEAN_MOTION_DDOT": 0}, "tle": {"line1": "1 67013U 25293L   25358.25002315 -.01583257  00000+0 -92494-2 0  9991", "line2": "2 67013  69.9923 290.4156 0003592 270.8997 130.9158 15.81038533  1965"}}, "geometry": {"type": "Point", "coordinates": [-121.90317644524093, -64.74407940542561]}}, {"type": "Feature", "properties": {"norad_id": 67014, "name": "STARLINK-36207", "group": "last-30-days", "lat": -63.25425708321209, "lon": -117.64102207372557, "alt_km": 338.0772649528835, "timestamp": "2025-12-24T20:42:19.748342+00:00", "meta": {"OBJECT_NAME": "STARLINK-36207", "OBJECT_ID": "2025-293M", "EPOCH": "2025-12-24T06:00:02.000160", "MEAN_MOTION": 15.81017667, "ECCENTRICITY": 0.0003617, "INCLINATION": 69.9929, "RA_OF_ASC_NODE": 290.4134, "ARG_OF_PERICENTER": 272.4551, "MEAN_ANOMALY": 131.8069, "EPHEMERIS_TYPE": 0, "CLASSIFICATION_TYPE": "U", "NORAD_CAT_ID": 67014, "ELEMENT_SET_NO": 999, "REV_AT_EPOCH": 202, "BSTAR": -0.00928284, "MEAN_MOTION_DOT": -0.01586934, "MEAN_MOTION_DDOT": 0}, "tle": {"line1": "1 67014U 25293M   25358.25002315 -.01586934  00000+0 -92828-2 0  9998", "line2": "2 67014  69.9929 290.4134 0003617 272.4551 131.8069 15.81017667  2024"}}, "geometry": {"type": "Point", "coordinates": [-117.64102207372557, -63.25425708321209]}}, {"type": "Feature", "properties": {"norad_id": 67015, "name": "STARLINK-36093", "group": "last-30-days", "lat": -59.97051909483452, "lon": -110.4197066768713, "alt_km": 338.2283672505255, "timestamp": "2025-12-24T20:42:19.748352+00:00", "meta": {"OBJECT_NAME": "STARLINK-36093", "OBJECT_ID": "2025-293N", "EPOCH": "2025-12-24T06:00:02.000160", "MEAN_MOTION": 15.80983194, "ECCENTRICITY": 0.00035663, "INCLINATION": 69.9923, "RA_OF_ASC_NODE": 290.4072, "ARG_OF_PERICENTER": 271.6487, "MEAN_ANOMALY": 137.4425, "EPHEMERIS_TYPE": 0, "CLASSIFICATION_TYPE": "U", "NORAD_CAT_ID": 67015, "ELEMENT_SET_NO": 999, "REV_AT_EPOCH": 196, "BSTAR": -0.0092923445, "MEAN_MOTION_DOT": -0.01586078, "MEAN_MOTION_DDOT": 0}, "tle": {"line1": "1 67015U 25293N   25358.25002315 -.01586078  00000+0 -92923-2 0  9994", "line2": "2 67015  69.9923 290.4072 0003566 271.6487 137.4425 15.80983194  1968"}}, "geometry": {"type": "Point", "coordinates": [-110.4197066768713, -59.97051909483452]}}, {"type": "Feature", "properties": {"norad_id": 67016, "name": "STARLINK-36120", "group": "last-30-days", "lat": -61.73531292624096, "lon": -114.00462092883423, "alt_km": 338.1258661028478, "timestamp": "2025-12-24T20:42:19.748361+00:00", "meta": {"OBJECT_NAME": "STARLINK-36120", "OBJECT_ID": "2025-293P", "EPOCH": "2025-12-24T06:00:02.000160", "MEAN_MOTION": 15.810011, "ECCENTRICITY": 0.00036173, "INCLINATION": 69.9925, "RA_OF_ASC_NODE": 290.4104, "ARG_OF_PERICENTER": 271.8245, "MEAN_ANOMALY": 134.737, "EPHEMERIS_TYPE": 0, "CLASSIFICATION_TYPE": "U", "NORAD_CAT_ID": 67016, "ELEMENT_SET_NO": 999, "REV_AT_EPOCH": 196, "BSTAR": -0.0092705143, "MEAN_MOTION_DOT": -0.01584023, "MEAN_MOTION_DDOT": 0}, "tle": {"line1": "1 67016U 25293P   25358.25002315 -.01584023  00000+0 -92705-2 0  9991", "line2": "2 67016  69.9925 290.4104 0003617 271.8245 134.7370 15.81001100  1966"}}, "geometry": {"type": "Point", "coordinates": [-114.00462092883423, -61.73531292624096]}}, {"type": "Feature", "properties": {"norad_id": 67017, "name": "STARLINK-35498", "group": "last-30-days", "lat": -58.215562680643565, "lon": -107.36366098838624, "alt_km": 338.099783223538, "timestamp": "2025-12-24T20:42:19.748373+00:00", "meta": {"OBJECT_NAME": "STARLINK-35498", "OBJECT_ID": "2025-293Q", "EPOCH": "2025-12-24T06:00:02.000160", "MEAN_MOTION": 15.80975974, "ECCENTRICITY": 0.0003827, "INCLINATION": 69.992, "RA_OF_ASC_NODE": 290.4041, "ARG_OF_PERICENTER": 272.9508, "MEAN_ANOMALY": 138.5287, "EPHEMERIS_TYPE": 0, "CLASSIFICATION_TYPE": "U", "NORAD_CAT_ID": 67017, "ELEMENT_SET_NO": 999, "REV_AT_EPOCH": 215, "BSTAR": -0.00935252, "MEAN_MOTION_DOT": -0.01594857, "MEAN_MOTION_DDOT": 0}, "tle": {"line1": "1 67017U 25293Q   25358.25002315 -.01594857  00000+0 -93525-2 0  9999", "line2": "2 67017  69.9920 290.4041 0003827 272.9508 138.5287 15.80975974  2158"}}, "geometry": {"type": "Point", "coordinates": [-107.36366098838624, -58.215562680643565]}}, {"type": "Feature", "properties": {"norad_id": 67018, "name": "STARLINK-36106", "group": "last-30-days", "lat": -56.3826316500737, "lon": -104.5837901190562, "alt_km": 338.1090954711199, "timestamp": "2025-12-24T20:42:19.748385+00:00", "meta": {"OBJECT_NAME": "STARLINK-36106", "OBJECT_ID": "2025-293R", "EPOCH": "2025-12-24T06:00:02.000160", "MEAN_MOTION": 15.80947697, "ECCENTRICITY": 0.00038533, "INCLINATION": 69.9919, "RA_OF_ASC_NODE": 290.4009, "ARG_OF_PERICENTER": 273.506, "MEAN_ANOMALY": 140.3909, "EPHEMERIS_TYPE": 0, "CLASSIFICATION_TYPE": "U", "NORAD_CAT_ID": 67018, "ELEMENT_SET_NO": 999, "REV_AT_EPOCH": 207, "BSTAR": -0.0092885249, "MEAN_MOTION_DOT": -0.01583516, "MEAN_MOTION_DDOT": 0}, "tle": {"line1": "1 67018U 25293R   25358.25002315 -.01583516  00000+0 -92885-2 0  9998", "line2": "2 67018  69.9919 290.4009 0003853 273.5060 140.3909 15.80947697  2074"}}, "geometry": {"type": "Point", "coordinates": [-104.5837901190562, -56.3826316500737]}}, {"type": "Feature", "properties": {"norad_id": 67019, "name": "STARLINK-35688", "group": "last-30-days", "lat": -54.59223475253786, "lon": -102.18770317647811, "alt_km": 338.2568474053269, "timestamp": "2025-12-24T20:42:19.748395+00:00", "meta": {"OBJECT_NAME": "STARLINK-35688", "OBJECT_ID": "2025-293S", "EPOCH": "2025-12-24T06:00:02.000160", "MEAN_MOTION": 15.80944182, "ECCENTRICITY": 0.00037386, "INCLINATION": 69.9918, "RA_OF_ASC_NODE": 290.3981, "ARG_OF_PERICENTER": 272.5053, "MEAN_ANOMALY": 143.6658, "EPHEMERIS_TYPE": 0, "CLASSIFICATION_TYPE": "U", "NORAD_CAT_ID": 67019, "ELEMENT_SET_NO": 999, "REV_AT_EPOCH": 215, "BSTAR": -0.009355333, "MEAN_MOTION_DOT": -0.01593124, "MEAN_MOTION_DDOT": 0}, "tle": {"line1": "1 67019U 25293S   25358.25002315 -.01593124  00000+0 -93553-2 0  9998", "line2": "2 67019  69.9918 290.3981 0003738 272.5053 143.6658 15.80944182  2157"}}, "geometry": {"type": "Point", "coordinates": [-102.18770317647811, -54.59223475253786]}}]}